CZ-2C R/B               
1 54039U 22132E   26056.96294647  .00041516  00000+0  49490-3 0  9992
2 54039  97.2969  59.9351 0020525 128.7827 231.5268 15.60709863188544
GSLV R/B                
1 54149U 22138AN  26057.28812834  .00003030  00000+0  26197-3 0  9998
2 54149  87.3876 170.1775 0021412 186.8784 173.2157 14.96676379182223
XRISM                   
1 57800U 23137A   26057.21557490  .00006247  00000+0  35565-3 0  9994
2 57800  31.0036 357.8684 0008277 284.0816  75.8902 15.11340348136055
ACS3                    
1 59588U 24077B   26057.26299740  .00021143  00000+0  17223-1 0  9990
2 59588  97.2124   0.9442 0052162 108.6042 252.0796 13.89060315 92613
SZ-21 MODULE            
1 66515U 25246C   26057.29092261  .00035556  00000+0  31875-3 0  9993
2 66515  41.4745 273.4799 0001437 288.9252  71.1434 15.67575585 16283
