CCSDS_OMM_VERS = 2.0
CREATION_DATE  = 
ORIGINATOR     = 

OBJECT_NAME    = CZ-2C R/B
OBJECT_ID      = 2022-132E
CENTER_NAME    = EARTH
REF_FRAME      = TEME
TIME_SYSTEM    = UTC
MEAN_ELEMENT_THEORY = SGP/SGP4

EPOCH          = 2026-02-25T23:06:38.575008
MEAN_MOTION    = 15.60709863
ECCENTRICITY   = .00205256
INCLINATION    = 97.2969
RA_OF_ASC_NODE = 59.9351
ARG_OF_PERICENTER = 128.7827
MEAN_ANOMALY   = 231.5268

EPHEMERIS_TYPE = 0
CLASSIFICATION_TYPE = U
NORAD_CAT_ID   = 54039
ELEMENT_SET_NO = 999
REV_AT_EPOCH   = 18854
BSTAR          = .49490114E-3
MEAN_MOTION_DOT = .41516E-3
MEAN_MOTION_DDOT = 0

CCSDS_OMM_VERS = 2.0
CREATION_DATE  = 
ORIGINATOR     = 

OBJECT_NAME    = GSLV R/B
OBJECT_ID      = 2022-138AN
CENTER_NAME    = EARTH
REF_FRAME      = TEME
TIME_SYSTEM    = UTC
MEAN_ELEMENT_THEORY = SGP/SGP4

EPOCH          = 2026-02-26T06:54:54.288576
MEAN_MOTION    = 14.96676379
ECCENTRICITY   = .00214129
INCLINATION    = 87.3876
RA_OF_ASC_NODE = 170.1775
ARG_OF_PERICENTER = 186.8784
MEAN_ANOMALY   = 173.2157

EPHEMERIS_TYPE = 0
CLASSIFICATION_TYPE = U
NORAD_CAT_ID   = 54149
ELEMENT_SET_NO = 999
REV_AT_EPOCH   = 18222
BSTAR          = .26197198E-3
MEAN_MOTION_DOT = .303E-4
MEAN_MOTION_DDOT = 0

CCSDS_OMM_VERS = 2.0
CREATION_DATE  = 
ORIGINATOR     = 

OBJECT_NAME    = XRISM
OBJECT_ID      = 2023-137A
CENTER_NAME    = EARTH
REF_FRAME      = TEME
TIME_SYSTEM    = UTC
MEAN_ELEMENT_THEORY = SGP/SGP4

EPOCH          = 2026-02-26T05:10:25.671360
MEAN_MOTION    = 15.11340348
ECCENTRICITY   = .00082776
INCLINATION    = 31.0036
RA_OF_ASC_NODE = 357.8684
ARG_OF_PERICENTER = 284.0816
MEAN_ANOMALY   = 75.8902

EPHEMERIS_TYPE = 0
CLASSIFICATION_TYPE = U
NORAD_CAT_ID   = 57800
ELEMENT_SET_NO = 999
REV_AT_EPOCH   = 13605
BSTAR          = .3556544E-3
MEAN_MOTION_DOT = .6247E-4
MEAN_MOTION_DDOT = 0

CCSDS_OMM_VERS = 2.0
CREATION_DATE  = 
ORIGINATOR     = 

OBJECT_NAME    = ACS3
OBJECT_ID      = 2024-077B
CENTER_NAME    = EARTH
REF_FRAME      = TEME
TIME_SYSTEM    = UTC
MEAN_ELEMENT_THEORY = SGP/SGP4

EPOCH          = 2026-02-26T06:18:42.975360
MEAN_MOTION    = 13.89060315
ECCENTRICITY   = .00521626
INCLINATION    = 97.2124
RA_OF_ASC_NODE = 0.9442
ARG_OF_PERICENTER = 108.6042
MEAN_ANOMALY   = 252.0796

EPHEMERIS_TYPE = 0
CLASSIFICATION_TYPE = U
NORAD_CAT_ID   = 59588
ELEMENT_SET_NO = 999
REV_AT_EPOCH   = 9261
BSTAR          = .17223236E-1
MEAN_MOTION_DOT = .21143E-3
MEAN_MOTION_DDOT = 0

CCSDS_OMM_VERS = 2.0
CREATION_DATE  = 
ORIGINATOR     = 

OBJECT_NAME    = SZ-21 MODULE
OBJECT_ID      = 2025-246C
CENTER_NAME    = EARTH
REF_FRAME      = TEME
TIME_SYSTEM    = UTC
MEAN_ELEMENT_THEORY = SGP/SGP4

EPOCH          = 2026-02-26T06:58:55.713504
MEAN_MOTION    = 15.67575585
ECCENTRICITY   = .00014376
INCLINATION    = 41.4745
RA_OF_ASC_NODE = 273.4799
ARG_OF_PERICENTER = 288.9252
MEAN_ANOMALY   = 71.1434

EPHEMERIS_TYPE = 0
CLASSIFICATION_TYPE = U
NORAD_CAT_ID   = 66515
ELEMENT_SET_NO = 999
REV_AT_EPOCH   = 1628
BSTAR          = .31874623E-3
MEAN_MOTION_DOT = .35556E-3
MEAN_MOTION_DDOT = 0

